MR-2                    
1 67556U 26015A   26045.41182990  .00000054  00000+0  63656-4 0  9992
2 67556  88.9970 281.0291 0005116  80.4323 279.7407 13.52686198  3118
MR-1                    
1 67557U 26015B   26045.19033128  .00000063  00000+0  76629-4 0  9990
2 67557  88.9971 281.0520 0005195  79.5776 280.5961 13.52661305  3087
ELECTRON KICK STAGE R/B 
1 67559U 26015D   26045.40724867  .00058521  89781-7  98659-3 0  9992
2 67559  89.0512 280.6581 0528653 254.8761  99.3417 14.68159102  3374
STARLINK-36426          
1 67560U 26014AA  26045.50002314 -.01902846  00000+0 -13056-1 0  9996
2 67560  97.2852 289.3374 0001911  82.9044   9.4901 15.77774369  3792
STARLINK-36621          
1 67561U 26016A   26045.50002314 -.00041082  00000+0 -27593-3 0  9997
2 67561  97.2836 104.7607 0001261  96.5788  42.0434 15.75186418  4322
STARLINK-36398          
1 67562U 26016B   26045.29241291  .00171014  00000+0  11226-2 0  9995
2 67562  97.2841 104.5235 0001169  99.5708 260.5690 15.75232024  3118
STARLINK-36403          
1 67563U 26016C   26045.45933601  .00257337  00000+0  13026-2 0  9990
2 67563  97.2835 104.7589 0001606  31.8573 328.2792 15.80856390  3143
STARLINK-36593          
1 67564U 26016D   26045.45811404  .00133226  00000+0  68463-3 0  9993
2 67564  97.2840 104.7600 0001090 113.9378 246.2005 15.80850249  3149
STARLINK-35725          
1 67565U 26016E   26045.50002314 -.00029061  00000+0 -19465-3 0  9993
2 67565  97.2845 104.7903 0001200  83.3744 125.2415 15.75187479  4314
STARLINK-36394          
1 67566U 26016F   26045.50002314  .00122658  00000+0  81397-3 0  9991
2 67566  97.2857 104.7833 0001100 102.7750  95.8568 15.75118863  4426
STARLINK-36352          
1 67567U 26016G   26045.45445070  .00246643  00000+0  12482-2 0  9995
2 67567  97.2850 104.7606 0000870  94.9801 265.1567 15.80888511  3149
