CCSDS_OMM_VERS = 2.0
CREATION_DATE  = 
ORIGINATOR     = 

OBJECT_NAME    = MR-2
OBJECT_ID      = 2026-015A
CENTER_NAME    = EARTH
REF_FRAME      = TEME
TIME_SYSTEM    = UTC
MEAN_ELEMENT_THEORY = SGP/SGP4

EPOCH          = 2026-02-14T09:53:02.103360
MEAN_MOTION    = 13.52686198
ECCENTRICITY   = .0005116
INCLINATION    = 88.9970
RA_OF_ASC_NODE = 281.0291
ARG_OF_PERICENTER = 80.4323
MEAN_ANOMALY   = 279.7407

EPHEMERIS_TYPE = 0
CLASSIFICATION_TYPE = U
NORAD_CAT_ID   = 67556
ELEMENT_SET_NO = 999
REV_AT_EPOCH   = 311
BSTAR          = .63656E-4
MEAN_MOTION_DOT = .54E-6
MEAN_MOTION_DDOT = 0

CCSDS_OMM_VERS = 2.0
CREATION_DATE  = 
ORIGINATOR     = 

OBJECT_NAME    = MR-1
OBJECT_ID      = 2026-015B
CENTER_NAME    = EARTH
REF_FRAME      = TEME
TIME_SYSTEM    = UTC
MEAN_ELEMENT_THEORY = SGP/SGP4

EPOCH          = 2026-02-14T04:34:04.622592
MEAN_MOTION    = 13.52661305
ECCENTRICITY   = .0005195
INCLINATION    = 88.9971
RA_OF_ASC_NODE = 281.0520
ARG_OF_PERICENTER = 79.5776
MEAN_ANOMALY   = 280.5961

EPHEMERIS_TYPE = 0
CLASSIFICATION_TYPE = U
NORAD_CAT_ID   = 67557
ELEMENT_SET_NO = 999
REV_AT_EPOCH   = 308
BSTAR          = .76629E-4
MEAN_MOTION_DOT = .63E-6
MEAN_MOTION_DDOT = 0

CCSDS_OMM_VERS = 2.0
CREATION_DATE  = 
ORIGINATOR     = 

OBJECT_NAME    = ELECTRON KICK STAGE R/B
OBJECT_ID      = 2026-015D
CENTER_NAME    = EARTH
REF_FRAME      = TEME
TIME_SYSTEM    = UTC
MEAN_ELEMENT_THEORY = SGP/SGP4

EPOCH          = 2026-02-14T09:46:26.285088
MEAN_MOTION    = 14.68159102
ECCENTRICITY   = .0528653
INCLINATION    = 89.0512
RA_OF_ASC_NODE = 280.6581
ARG_OF_PERICENTER = 254.8761
MEAN_ANOMALY   = 99.3417

EPHEMERIS_TYPE = 0
CLASSIFICATION_TYPE = U
NORAD_CAT_ID   = 67559
ELEMENT_SET_NO = 999
REV_AT_EPOCH   = 337
BSTAR          = .98659E-3
MEAN_MOTION_DOT = .58521E-3
MEAN_MOTION_DDOT = .89781E-7

CCSDS_OMM_VERS = 2.0
CREATION_DATE  = 
ORIGINATOR     = 

OBJECT_NAME    = STARLINK-36426
OBJECT_ID      = 2026-014AA
CENTER_NAME    = EARTH
REF_FRAME      = TEME
TIME_SYSTEM    = UTC
MEAN_ELEMENT_THEORY = SGP/SGP4

EPOCH          = 2026-02-14T12:00:01.999296
MEAN_MOTION    = 15.77774369
ECCENTRICITY   = .0001911
INCLINATION    = 97.2852
RA_OF_ASC_NODE = 289.3374
ARG_OF_PERICENTER = 82.9044
MEAN_ANOMALY   = 9.4901

EPHEMERIS_TYPE = 0
CLASSIFICATION_TYPE = U
NORAD_CAT_ID   = 67560
ELEMENT_SET_NO = 999
REV_AT_EPOCH   = 379
BSTAR          = -.13056E-1
MEAN_MOTION_DOT = -.1902846E-1
MEAN_MOTION_DDOT = 0

CCSDS_OMM_VERS = 2.0
CREATION_DATE  = 
ORIGINATOR     = 

OBJECT_NAME    = STARLINK-36621
OBJECT_ID      = 2026-016A
CENTER_NAME    = EARTH
REF_FRAME      = TEME
TIME_SYSTEM    = UTC
MEAN_ELEMENT_THEORY = SGP/SGP4

EPOCH          = 2026-02-14T12:00:01.999296
MEAN_MOTION    = 15.75186418
ECCENTRICITY   = .0001261
INCLINATION    = 97.2836
RA_OF_ASC_NODE = 104.7607
ARG_OF_PERICENTER = 96.5788
MEAN_ANOMALY   = 42.0434

EPHEMERIS_TYPE = 0
CLASSIFICATION_TYPE = U
NORAD_CAT_ID   = 67561
ELEMENT_SET_NO = 999
REV_AT_EPOCH   = 432
BSTAR          = -.27593E-3
MEAN_MOTION_DOT = -.41082E-3
MEAN_MOTION_DDOT = 0

CCSDS_OMM_VERS = 2.0
CREATION_DATE  = 
ORIGINATOR     = 

OBJECT_NAME    = STARLINK-36398
OBJECT_ID      = 2026-016B
CENTER_NAME    = EARTH
REF_FRAME      = TEME
TIME_SYSTEM    = UTC
MEAN_ELEMENT_THEORY = SGP/SGP4

EPOCH          = 2026-02-14T07:01:04.475424
MEAN_MOTION    = 15.75232024
ECCENTRICITY   = .0001169
INCLINATION    = 97.2841
RA_OF_ASC_NODE = 104.5235
ARG_OF_PERICENTER = 99.5708
MEAN_ANOMALY   = 260.5690

EPHEMERIS_TYPE = 0
CLASSIFICATION_TYPE = U
NORAD_CAT_ID   = 67562
ELEMENT_SET_NO = 999
REV_AT_EPOCH   = 311
BSTAR          = .11226E-2
MEAN_MOTION_DOT = .171014E-2
MEAN_MOTION_DDOT = 0

CCSDS_OMM_VERS = 2.0
CREATION_DATE  = 
ORIGINATOR     = 

OBJECT_NAME    = STARLINK-36403
OBJECT_ID      = 2026-016C
CENTER_NAME    = EARTH
REF_FRAME      = TEME
TIME_SYSTEM    = UTC
MEAN_ELEMENT_THEORY = SGP/SGP4

EPOCH          = 2026-02-14T11:01:26.631264
MEAN_MOTION    = 15.80856390
ECCENTRICITY   = .0001606
INCLINATION    = 97.2835
RA_OF_ASC_NODE = 104.7589
ARG_OF_PERICENTER = 31.8573
MEAN_ANOMALY   = 328.2792

EPHEMERIS_TYPE = 0
CLASSIFICATION_TYPE = U
NORAD_CAT_ID   = 67563
ELEMENT_SET_NO = 999
REV_AT_EPOCH   = 314
BSTAR          = .13026E-2
MEAN_MOTION_DOT = .257337E-2
MEAN_MOTION_DDOT = 0

CCSDS_OMM_VERS = 2.0
CREATION_DATE  = 
ORIGINATOR     = 

OBJECT_NAME    = STARLINK-36593
OBJECT_ID      = 2026-016D
CENTER_NAME    = EARTH
REF_FRAME      = TEME
TIME_SYSTEM    = UTC
MEAN_ELEMENT_THEORY = SGP/SGP4

EPOCH          = 2026-02-14T10:59:41.053056
MEAN_MOTION    = 15.80850249
ECCENTRICITY   = .000109
INCLINATION    = 97.2840
RA_OF_ASC_NODE = 104.7600
ARG_OF_PERICENTER = 113.9378
MEAN_ANOMALY   = 246.2005

EPHEMERIS_TYPE = 0
CLASSIFICATION_TYPE = U
NORAD_CAT_ID   = 67564
ELEMENT_SET_NO = 999
REV_AT_EPOCH   = 314
BSTAR          = .68463E-3
MEAN_MOTION_DOT = .133226E-2
MEAN_MOTION_DDOT = 0

CCSDS_OMM_VERS = 2.0
CREATION_DATE  = 
ORIGINATOR     = 

OBJECT_NAME    = STARLINK-35725
OBJECT_ID      = 2026-016E
CENTER_NAME    = EARTH
REF_FRAME      = TEME
TIME_SYSTEM    = UTC
MEAN_ELEMENT_THEORY = SGP/SGP4

EPOCH          = 2026-02-14T12:00:01.999296
MEAN_MOTION    = 15.75187479
ECCENTRICITY   = .00012
INCLINATION    = 97.2845
RA_OF_ASC_NODE = 104.7903
ARG_OF_PERICENTER = 83.3744
MEAN_ANOMALY   = 125.2415

EPHEMERIS_TYPE = 0
CLASSIFICATION_TYPE = U
NORAD_CAT_ID   = 67565
ELEMENT_SET_NO = 999
REV_AT_EPOCH   = 431
BSTAR          = -.19465E-3
MEAN_MOTION_DOT = -.29061E-3
MEAN_MOTION_DDOT = 0

CCSDS_OMM_VERS = 2.0
CREATION_DATE  = 
ORIGINATOR     = 

OBJECT_NAME    = STARLINK-36394
OBJECT_ID      = 2026-016F
CENTER_NAME    = EARTH
REF_FRAME      = TEME
TIME_SYSTEM    = UTC
MEAN_ELEMENT_THEORY = SGP/SGP4

EPOCH          = 2026-02-14T12:00:01.999296
MEAN_MOTION    = 15.75118863
ECCENTRICITY   = .00011
INCLINATION    = 97.2857
RA_OF_ASC_NODE = 104.7833
ARG_OF_PERICENTER = 102.7750
MEAN_ANOMALY   = 95.8568

EPHEMERIS_TYPE = 0
CLASSIFICATION_TYPE = U
NORAD_CAT_ID   = 67566
ELEMENT_SET_NO = 999
REV_AT_EPOCH   = 442
BSTAR          = .81397E-3
MEAN_MOTION_DOT = .122658E-2
MEAN_MOTION_DDOT = 0

CCSDS_OMM_VERS = 2.0
CREATION_DATE  = 
ORIGINATOR     = 

OBJECT_NAME    = STARLINK-36352
OBJECT_ID      = 2026-016G
CENTER_NAME    = EARTH
REF_FRAME      = TEME
TIME_SYSTEM    = UTC
MEAN_ELEMENT_THEORY = SGP/SGP4

EPOCH          = 2026-02-14T10:54:24.540480
MEAN_MOTION    = 15.80888511
ECCENTRICITY   = .000087
INCLINATION    = 97.2850
RA_OF_ASC_NODE = 104.7606
ARG_OF_PERICENTER = 94.9801
MEAN_ANOMALY   = 265.1567

EPHEMERIS_TYPE = 0
CLASSIFICATION_TYPE = U
NORAD_CAT_ID   = 67567
ELEMENT_SET_NO = 999
REV_AT_EPOCH   = 314
BSTAR          = .12482E-2
MEAN_MOTION_DOT = .246643E-2
MEAN_MOTION_DDOT = 0

